{
  "norad_id": 68118,
  "name": "STARLINK-36789",
  "history": [
    {
      "epoch": "2026-03-28T22:00:01.999584Z",
      "apogee_km": 345.01811205347894,
      "perigee_km": 343.17366579341524,
      "latitude_deg": 1.8090095982220462,
      "longitude_deg": 72.92263361195698,
      "height_km": 347.2822285320035,
      "semi_major_axis_km": 6722.232888923447,
      "eccentricity": 0.00013719,
      "inclination_deg": 97.2849,
      "raan_deg": 49.0312,
      "arg_perigee_deg": 73.3065,
      "mean_anomaly_deg": 104.7401,
      "mean_motion_rev_day": 15.7518813
    },
    {
      "epoch": "2026-03-29T03:20:44.269728Z",
      "apogee_km": 345.05255305286846,
      "perigee_km": 342.4995704720104,
      "latitude_deg": 3.34201774467903e-05,
      "longitude_deg": 172.53145751859728,
      "height_km": 346.99024834507816,
      "semi_major_axis_km": 6721.913061762439,
      "eccentricity": 0.0001899,
      "inclination_deg": 97.286,
      "raan_deg": 49.2657,
      "arg_perigee_deg": 92.1922,
      "mean_anomaly_deg": 267.9561,
      "mean_motion_rev_day": 15.75300552
    },
    {
      "epoch": "2026-03-30T02:12:45.858816Z",
      "apogee_km": 347.14739293244656,
      "perigee_km": 335.69511540869917,
      "latitude_deg": -2.9951936722346254e-05,
      "longitude_deg": -170.4155738398498,
      "height_km": 341.3199151988837,
      "semi_major_axis_km": 6719.558254170573,
      "eccentricity": 0.00085216,
      "inclination_deg": 97.2852,
      "raan_deg": 50.2644,
      "arg_perigee_deg": 304.9124,
      "mean_anomaly_deg": 55.134,
      "mean_motion_rev_day": 15.76128699
    },
    {
      "epoch": "2026-03-30T14:00:03.000384Z",
      "apogee_km": 355.81512534209924,
      "perigee_km": 353.4630973353642,
      "latitude_deg": -75.19227151764774,
      "longitude_deg": 164.05089162667392,
      "height_km": 383.00502768361633,
      "semi_major_axis_km": 6732.776111338731,
      "eccentricity": 0.00017467,
      "inclination_deg": 97.2845,
      "raan_deg": 50.7768,
      "arg_perigee_deg": 104.6702,
      "mean_anomaly_deg": 152.2613,
      "mean_motion_rev_day": 15.71489569
    },
    {
      "epoch": "2026-03-30T22:00:00.999936Z",
      "apogee_km": 359.5794303812163,
      "perigee_km": 357.71064704367745,
      "latitude_deg": -19.648578701805903,
      "longitude_deg": -104.57999072705894,
      "height_km": 366.73684518359437,
      "semi_major_axis_km": 6736.782038712447,
      "eccentricity": 0.0001387,
      "inclination_deg": 97.2843,
      "raan_deg": 51.1246,
      "arg_perigee_deg": 95.2583,
      "mean_anomaly_deg": 245.18,
      "mean_motion_rev_day": 15.70088083
    },
    {
      "epoch": "2026-03-31T20:00:01.999008Z",
      "apogee_km": 371.02539326649367,
      "perigee_km": 368.59478272539855,
      "latitude_deg": 67.07918083176419,
      "longitude_deg": 120.35962297306453,
      "height_km": 380.3865374849207,
      "semi_major_axis_km": 6747.947087995946,
      "eccentricity": 0.0001801,
      "inclination_deg": 97.2855,
      "raan_deg": 52.0761,
      "arg_perigee_deg": 82.1446,
      "mean_anomaly_deg": 29.7308,
      "mean_motion_rev_day": 15.6619293
    },
    {
      "epoch": "2026-04-01T20:00:01.999008Z",
      "apogee_km": 382.93197210942344,
      "perigee_km": 380.96478726393525,
      "latitude_deg": -21.22953092269203,
      "longitude_deg": -74.25981297311084,
      "height_km": 390.60447653293403,
      "semi_major_axis_km": 6760.0853796866795,
      "eccentricity": 0.0001455,
      "inclination_deg": 97.2851,
      "raan_deg": 53.1086,
      "arg_perigee_deg": 95.9275,
      "mean_anomaly_deg": 242.9214,
      "mean_motion_rev_day": 15.61976481
    },
    {
      "epoch": "2026-04-02T20:00:01.999008Z",
      "apogee_km": 395.4341690956426,
      "perigee_km": 392.87288881759014,
      "latitude_deg": -10.816330417693983,
      "longitude_deg": 101.55767033353463,
      "height_km": 399.53226743694114,
      "semi_major_axis_km": 6772.290528956616,
      "eccentricity": 0.0001891,
      "inclination_deg": 97.2852,
      "raan_deg": 54.1341,
      "arg_perigee_deg": 91.544,
      "mean_anomaly_deg": 99.1472,
      "mean_motion_rev_day": 15.57755849
    },
    {
      "epoch": "2026-04-02T22:00:01.999584Z",
      "apogee_km": 396.0551981858771,
      "perigee_km": 394.0121389854048,
      "latitude_deg": -61.701698540476734,
      "longitude_deg": -93.38873887102638,
      "height_km": 419.772244471716,
      "semi_major_axis_km": 6773.170668585641,
      "eccentricity": 0.00015082,
      "inclination_deg": 97.2854,
      "raan_deg": 54.22,
      "arg_perigee_deg": 99.9351,
      "mean_anomaly_deg": 197.7089,
      "mean_motion_rev_day": 15.57452225
    },
    {
      "epoch": "2026-04-03T20:00:01.999008Z",
      "apogee_km": 407.4752969557221,
      "perigee_km": 405.2350576387789,
      "latitude_deg": 27.164514828025744,
      "longitude_deg": -80.7573319062917,
      "height_km": 409.26696147234844,
      "semi_major_axis_km": 6784.49217729725,
      "eccentricity": 0.0001651,
      "inclination_deg": 97.2855,
      "raan_deg": 55.1535,
      "arg_perigee_deg": 85.6297,
      "mean_anomaly_deg": 301.7486,
      "mean_motion_rev_day": 15.53555393
    },
    {
      "epoch": "2026-04-04T20:00:01.999008Z",
      "apogee_km": 420.14606602113236,
      "perigee_km": 417.25197324397413,
      "latitude_deg": -28.967282030033758,
      "longitude_deg": 98.97866364045541,
      "height_km": 430.2385573511248,
      "semi_major_axis_km": 6796.836019632553,
      "eccentricity": 0.0002129,
      "inclination_deg": 97.285,
      "raan_deg": 56.17,
      "arg_perigee_deg": 95.9634,
      "mean_anomaly_deg": 112.971,
      "mean_motion_rev_day": 15.4932516
    },
    {
      "epoch": "2026-04-05T14:00:03.000384Z",
      "apogee_km": 429.0615779753771,
      "perigee_km": 426.65797215429484,
      "latitude_deg": 64.3403982752389,
      "longitude_deg": -2.3202789361393648,
      "height_km": 437.9028920772918,
      "semi_major_axis_km": 6805.996775064836,
      "eccentricity": 0.00017658,
      "inclination_deg": 97.2856,
      "raan_deg": 56.9252,
      "arg_perigee_deg": 91.221,
      "mean_anomaly_deg": 334.0183,
      "mean_motion_rev_day": 15.46198165
    },
    {
      "epoch": "2026-04-05T20:00:03.000384Z",
      "apogee_km": 432.1692369509801,
      "perigee_km": 429.93446117071926,
      "latitude_deg": 15.261178792410986,
      "longitude_deg": -78.95742350656337,
      "height_km": 433.07369286259103,
      "semi_major_axis_km": 6809.18884906085,
      "eccentricity": 0.0001641,
      "inclination_deg": 97.2854,
      "raan_deg": 57.1762,
      "arg_perigee_deg": 84.5741,
      "mean_anomaly_deg": 290.8571,
      "mean_motion_rev_day": 15.45111031
    },
    {
      "epoch": "2026-04-06T06:00:02.000160Z",
      "apogee_km": 437.4487671278421,
      "perigee_km": 435.0889383810336,
      "latitude_deg": 9.58759881822619,
      "longitude_deg": -45.726649709682754,
      "height_km": 438.5932235888733,
      "semi_major_axis_km": 6814.405852754438,
      "eccentricity": 0.00017315,
      "inclination_deg": 97.2857,
      "raan_deg": 57.5951,
      "arg_perigee_deg": 83.3091,
      "mean_anomaly_deg": 86.9432,
      "mean_motion_rev_day": 15.43337001
    },
    {
      "epoch": "2026-04-07T20:00:00.999360Z",
      "apogee_km": 457.2973086120319,
      "perigee_km": 454.5896459269379,
      "latitude_deg": -56.790946471044386,
      "longitude_deg": -65.73445337992764,
      "height_km": 479.23099438847447,
      "semi_major_axis_km": 6834.080477269485,
      "eccentricity": 0.0001981,
      "inclination_deg": 97.2858,
      "raan_deg": 59.1745,
      "arg_perigee_deg": 97.9954,
      "mean_anomaly_deg": 204.7448,
      "mean_motion_rev_day": 15.36677134
    },
    {
      "epoch": "2026-04-08T14:00:04.999680Z",
      "apogee_km": 466.5288727785628,
      "perigee_km": 464.7956121824118,
      "latitude_deg": 54.266183689696625,
      "longitude_deg": -156.7775144742187,
      "height_km": 473.9345280736352,
      "semi_major_axis_km": 6843.799242480487,
      "eccentricity": 0.00012663,
      "inclination_deg": 97.2852,
      "raan_deg": 59.9093,
      "arg_perigee_deg": 91.89,
      "mean_anomaly_deg": 33.2903,
      "mean_motion_rev_day": 15.33404982
    },
    {
      "epoch": "2026-04-09T20:00:01.999008Z",
      "apogee_km": 466.46880551909817,
      "perigee_km": 464.78387098522126,
      "latitude_deg": -1.0156368772796258,
      "longitude_deg": 102.92707084600339,
      "height_km": 468.9528247517786,
      "semi_major_axis_km": 6843.76333825216,
      "eccentricity": 0.0001231,
      "inclination_deg": 97.2845,
      "raan_deg": 61.1404,
      "arg_perigee_deg": 85.6398,
      "mean_anomaly_deg": 95.2392,
      "mean_motion_rev_day": 15.33417049
    },
    {
      "epoch": "2026-04-10T12:00:02.000160Z",
      "apogee_km": 466.41140013403947,
      "perigee_km": 464.4650873347209,
      "latitude_deg": -76.73665808523192,
      "longitude_deg": -169.58072787139514,
      "height_km": 493.94765090674645,
      "semi_major_axis_km": 6843.57524373438,
      "eccentricity": 0.0001422,
      "inclination_deg": 97.2847,
      "raan_deg": 61.7983,
      "arg_perigee_deg": 100.3465,
      "mean_anomaly_deg": 158.4144,
      "mean_motion_rev_day": 15.33480268
    },
    {
      "epoch": "2026-04-11T20:00:01.000224Z",
      "apogee_km": 466.6740064878559,
      "perigee_km": 464.60171146055836,
      "latitude_deg": 53.92942160578686,
      "longitude_deg": -86.98916319931926,
      "height_km": 473.69578385211594,
      "semi_major_axis_km": 6843.774858974207,
      "eccentricity": 0.0001514,
      "inclination_deg": 97.2853,
      "raan_deg": 63.1137,
      "arg_perigee_deg": 88.0774,
      "mean_anomaly_deg": 326.399,
      "mean_motion_rev_day": 15.33413177
    },
    {
      "epoch": "2026-04-13T03:05:11.133312Z",
      "apogee_km": 466.1473462993117,
      "perigee_km": 464.9168545950506,
      "latitude_deg": 2.1059993584137108e-05,
      "longitude_deg": 176.76668431849623,
      "height_km": 468.76133427003623,
      "semi_major_axis_km": 6843.66910044718,
      "eccentricity": 8.99e-05,
      "inclination_deg": 97.286,
      "raan_deg": 64.3869,
      "arg_perigee_deg": 101.1143,
      "mean_anomaly_deg": 259.0201,
      "mean_motion_rev_day": 15.33448722
    }
  ]
}